[{"OBJECT_NAME":"STARLINK-30960","OBJECT_ID":"2023-183V","EPOCH":"2026-03-09T22:00:01.999584","MEAN_MOTION":15.71845093,"ECCENTRICITY":0.00290225,"INCLINATION":42.9869,"RA_OF_ASC_NODE":306.2273,"ARG_OF_PERICENTER":250.1506,"MEAN_ANOMALY":28.4078,"EPHEMERIS_TYPE":0,"CLASSIFICATION_TYPE":"U","NORAD_CAT_ID":58456,"ELEMENT_SET_NO":999,"REV_AT_EPOCH":592,"BSTAR":0.0060496308,"MEAN_MOTION_DOT":0.00921154,"MEAN_MOTION_DDOT":0},{"OBJECT_NAME":"STARLINK-11381 [DTC]","OBJECT_ID":"2024-220G","EPOCH":"2026-03-09T22:36:30.901248","MEAN_MOTION":15.71105417,"ECCENTRICITY":0.00019681,"INCLINATION":42.9978,"RA_OF_ASC_NODE":41.4822,"ARG_OF_PERICENTER":205.6885,"MEAN_ANOMALY":154.3885,"EPHEMERIS_TYPE":0,"CLASSIFICATION_TYPE":"U","NORAD_CAT_ID":62094,"ELEMENT_SET_NO":999,"REV_AT_EPOCH":7499,"BSTAR":0.0023646513,"MEAN_MOTION_DOT":0.00318414,"MEAN_MOTION_DDOT":0}]
